[{"OBJECT_NAME":"STARLINK-3619","OBJECT_ID":"2022-017V","EPOCH":"2026-03-09T22:28:26.086656","MEAN_MOTION":15.08831006,"ECCENTRICITY":0.00011926,"INCLINATION":53.2194,"RA_OF_ASC_NODE":348.0139,"ARG_OF_PERICENTER":93.0181,"MEAN_ANOMALY":267.0947,"EPHEMERIS_TYPE":0,"CLASSIFICATION_TYPE":"U","NORAD_CAT_ID":51787,"ELEMENT_SET_NO":999,"REV_AT_EPOCH":22231,"BSTAR":-7.553327e-6,"MEAN_MOTION_DOT":-4.08e-6,"MEAN_MOTION_DDOT":0},{"OBJECT_NAME":"CZ-6A DEB","OBJECT_ID":"2024-140ACM","EPOCH":"2026-03-09T13:49:36.534720","MEAN_MOTION":14.84353282,"ECCENTRICITY":0.0123748,"INCLINATION":89.0471,"RA_OF_ASC_NODE":283.7315,"ARG_OF_PERICENTER":156.1501,"MEAN_ANOMALY":204.5529,"EPHEMERIS_TYPE":0,"CLASSIFICATION_TYPE":"U","NORAD_CAT_ID":61821,"ELEMENT_SET_NO":999,"REV_AT_EPOCH":7938,"BSTAR":0.0013387,"MEAN_MOTION_DOT":0.00012918,"MEAN_MOTION_DDOT":0}]
